NORAD_CAT_ID,OBJECT_NAME,OBJECT_TYPE,EPOCH,MEAN_MOTION,ECCENTRICITY,INCLINATION,RA_OF_ASC_NODE,ARG_OF_PERICENTER,MEAN_ANOMALY,BSTAR,MEAN_MOTION_DOT,MEAN_MOTION_DDOT,TLE_LINE0,TLE_LINE1,TLE_LINE2,SEMIMAJOR_AXIS,PERIOD,APOGEE,PERIGEE,DECAYED
55297.0,STARLINK-5284,PAYLOAD,2024-07-04 22:03:19,14.98327911,0.0003085,69.9995,129.403,269.1827,90.8979,6.7741e-05,7.15e-06,0.0,0 STARLINK-5284,1 55297U 23010AE  24186.91897334  .00000715  00000-0  67741-4 0  9991,2 55297  69.9995 129.4030 0003085 269.1827  90.8979 14.98327911 81485,6950.199,96.107,574.208,569.92,0.0
55297.0,STARLINK-5284,PAYLOAD,2024-07-05 04:27:51,14.98334347,0.0003095,69.9995,128.7302,269.8224,90.258,7.8942e-05,8.49e-06,0.0,0 STARLINK-5284,1 55297U 23010AE  24187.18600880  .00000849  00000-0  78942-4 0  9992,2 55297  69.9995 128.7302 0003095 269.8224  90.2580 14.98334347 81212,6950.179,96.107,574.196,569.893,0.0
55297.0,STARLINK-5284,PAYLOAD,2024-07-05 14:04:39,14.98331008,0.0003075,69.9997,127.7201,270.1108,89.9699,-3.3294e-05,-4.9e-06,0.0,0 STARLINK-5284,1 55297U 23010AE  24187.58657289 -.00000490  00000-0 -33294-4 0  9996,2 55297  69.9997 127.7201 0003075 270.1108  89.9699 14.98331008 81582,6950.19,96.107,574.192,569.918,0.0
55297.0,STARLINK-5284,PAYLOAD,2024-07-05 20:29:12,14.9832555,0.0002933,69.9999,127.0469,267.2251,92.8572,-3.1216e-05,-4.65e-06,0.0,0 STARLINK-5284,1 55297U 23010AE  24187.85361640 -.00000465  00000-0 -31216-4 0  9993,2 55297  69.9999 127.0469 0002933 267.2251  92.8572 14.98325550 81310,6950.207,96.107,574.11,570.033,0.0
55297.0,STARLINK-5284,PAYLOAD,2024-07-05 22:05:20,14.9832622,0.0002828,70.0,126.8786,263.4979,96.5858,-4.8708e-05,-6.74e-06,0.0,0 STARLINK-5284,1 55297U 23010AE  24187.92037659 -.00000674  00000-0 -48708-4 0  9997,2 55297  70.0000 126.8786 0002828 263.4979  96.5858 14.98326220 81631,6950.205,96.107,574.035,570.104,0.0
55297.0,STARLINK-5284,PAYLOAD,2024-07-06 04:29:52,14.98332995,0.0002938,69.9999,126.2054,269.884,90.1983,-1.6763e-05,-2.93e-06,0.0,0 STARLINK-5284,1 55297U 23010AE  24188.18741164 -.00000293  00000-0 -16763-4 0  9992,2 55297  69.9999 126.2054 0002938 269.8840  90.1983 14.98332995 81361,6950.184,96.107,574.091,570.007,0.0
55297.0,STARLINK-5284,PAYLOAD,2024-07-06 06:06:00,14.98337177,0.0002997,69.9998,126.0372,268.9082,91.1734,-5.003e-05,-6.9e-06,0.0,0 STARLINK-5284,1 55297U 23010AE  24188.25416947 -.00000690  00000-0 -50030-4 0  9994,2 55297  69.9998 126.0372 0002997 268.9082  91.1734 14.98337177 81681,6950.171,96.107,574.119,569.953,0.0
55297.0,STARLINK-5284,PAYLOAD,2024-07-06 22:07:21,14.98331941,0.0002598,70.0003,124.3542,273.0693,87.0168,-9.9958e-05,-1.285e-05,0.0,0 STARLINK-5284,1 55297U 23010AE  24188.92177480 -.00001285  00000-0 -99958-4 0  9997,2 55297  70.0003 124.3542 0002598 273.0693  87.0168 14.98331941 81782,6950.187,96.107,573.858,570.246,0.0
55297.0,STARLINK-5284,PAYLOAD,2024-07-07 04:31:53,14.9833188,0.000274,70.0001,123.6809,270.6568,89.4277,-1.7255e-05,-2.99e-06,0.0,0 STARLINK-5284,1 55297U 23010AE  24189.18881194 -.00000299  00000-0 -17255-4 0  9994,2 55297  70.0001 123.6809 0002740 270.6568  89.4277 14.98331880 81511,6950.187,96.107,573.956,570.148,0.0
55297.0,STARLINK-5284,PAYLOAD,2024-07-07 06:08:01,14.98332446,0.0002739,70.0001,123.5126,270.7033,89.3812,-1.0353e-05,-2.16e-06,0.0,0 STARLINK-5284,1 55297U 23010AE  24189.25557132 -.00000216  00000-0 -10353-4 0  9995,2 55297  70.0001 123.5126 0002739 270.7033  89.3812 14.98332446 81836,6950.185,96.107,573.954,570.147,0.0
55297.0,STARLINK-5284,PAYLOAD,2024-07-08 12:34:34,14.98328392,0.0002606,70.0003,120.3152,269.9091,90.1769,-6.7523e-06,-1.73e-06,0.0,0 STARLINK-5284,1 55297U 23010AE  24190.52401261 -.00000173  00000-0 -67523-5 0  9992,2 55297  70.0003 120.3152 0002606 269.9091  90.1769 14.98328392 81712,6950.198,96.107,573.874,570.252,0.0
55297.0,STARLINK-5284,PAYLOAD,2024-07-08 22:11:22,14.98329384,0.0002662,70.0001,119.3048,270.2913,89.7941,5.199e-06,-3.1e-07,0.0,0 STARLINK-5284,1 55297U 23010AE  24190.92457160 -.00000031  00000-0  51990-5 0  9998,2 55297  70.0001 119.3048 0002662 270.2913  89.7941 14.98329384 82081,6950.195,96.107,573.91,570.21,0.0
55297.0,STARLINK-5284,PAYLOAD,2024-07-09 12:36:35,14.98322727,0.0002696,70.0001,117.7907,270.4771,89.6079,7.3736e-05,7.87e-06,0.0,0 STARLINK-5284,1 55297U 23010AE  24191.52541469  .00000787  00000-0  73736-4 0  9999,2 55297  70.0001 117.7907 0002696 270.4771  89.6079 14.98322727 81868,6950.215,96.107,573.954,570.207,0.0
55297.0,STARLINK-5284,PAYLOAD,2024-07-09 22:13:24,14.98328096,0.0002822,70.0002,116.7811,268.6046,91.479,-5.2566e-05,-7.2e-06,0.0,0 STARLINK-5284,1 55297U 23010AE  24191.92597386 -.00000720  00000-0 -52566-4 0  9999,2 55297  70.0002 116.7811 0002822 268.6046  91.4790 14.98328096 82235,6950.199,96.107,574.025,570.102,0.0
55297.0,STARLINK-5284,PAYLOAD,2024-07-10 12:38:36,14.98329291,0.0002869,69.9999,115.2655,270.5597,89.5233,-6.0274e-05,-8.12e-06,0.0,0 STARLINK-5284,1 55297U 23010AE  24192.52681341 -.00000812  00000-0 -60274-4 0  9998,2 55297  69.9999 115.2655 0002869 270.5597  89.5233 14.98329291 82015,6950.195,96.107,574.054,570.066,0.0
55297.0,STARLINK-5284,PAYLOAD,2024-07-10 22:15:24,14.98328068,0.0002953,70.0,114.2558,270.8933,89.1888,3.5429e-05,3.3e-06,0.0,0 STARLINK-5284,1 55297U 23010AE  24192.92737180  .00000330  00000-0  35429-4 0  9992,2 55297  70.0000 114.2558 0002953 270.8933  89.1888 14.98328068 82386,6950.199,96.107,574.116,570.011,0.0
55297.0,STARLINK-5284,PAYLOAD,2024-07-11 04:39:56,14.98335103,0.0002886,70.0,113.5817,269.3366,90.7462,6.858e-05,7.25e-06,0.0,0 STARLINK-5284,1 55297U 23010AE  24193.19440617  .00000725  00000-0  68580-4 0  9990,2 55297  70.0000 113.5817 0002886 269.3366  90.7462 14.98335103 82119,6950.177,96.107,574.048,570.036,0.0
55297.0,STARLINK-5284,PAYLOAD,2024-07-12 04:41:57,14.98334264,0.0002852,70.0,111.0569,270.1697,89.9135,7.1615e-05,7.62e-06,0.0,0 STARLINK-5284,1 55297U 23010AE  24194.19580522  .00000762  00000-0  71615-4 0  9995,2 55297  70.0000 111.0569 0002852 270.1697  89.9135 14.98334264 82266,6950.18,96.107,574.027,570.063,0.0
55297.0,STARLINK-5284,PAYLOAD,2024-07-12 20:43:18,14.98320136,0.0003148,70.0005,109.3749,266.183,93.897,0.00012107,1.352e-05,0.0,0 STARLINK-5284,1 55297U 23010AE  24194.86341105  .00001352  00000-0  12107-3 0  9997,2 55297  70.0005 109.3749 0003148 266.1830  93.8970 14.98320136 82369,6950.223,96.108,574.276,569.9,0.0
55297.0,STARLINK-5284,PAYLOAD,2024-07-12 22:19:26,14.98349315,0.0002733,70.0005,109.2066,270.5012,89.5834,-0.00037481,-4.564e-05,0.0,0 STARLINK-5284,1 55297U 23010AE  24194.93016574 -.00004564  00000-0 -37481-3 0  9996,2 55297  70.0005 109.2066 0002733 270.5012  89.5834 14.98349315 82686,6950.133,96.106,573.898,570.099,0.0
55297.0,STARLINK-5284,PAYLOAD,2024-07-13 11:08:31,14.98330889,0.0002598,70.0006,107.8594,270.0334,90.0527,-5.6424e-05,-7.66e-06,0.0,0 STARLINK-5284,1 55297U 23010AE  24195.46424965 -.00000766  00000-0 -56424-4 0  9991,2 55297  70.0006 107.8594 0002598 270.0334  90.0527 14.98330889 82769,6950.19,96.107,573.861,570.249,0.0
55297.0,STARLINK-5284,PAYLOAD,2024-07-13 20:45:19,14.98329597,0.0002711,70.0003,106.8495,268.6018,91.483,-3.686e-05,-5.33e-06,0.0,0 STARLINK-5284,1 55297U 23010AE  24195.86480926 -.00000533  00000-0 -36860-4 0  9998,2 55297  70.0003 106.8495 0002711 268.6018  91.4830 14.98329597 82513,6950.194,96.107,573.943,570.175,0.0
55297.0,STARLINK-5284,PAYLOAD,2024-07-13 22:21:27,14.9830231,0.0002583,70.0006,106.6812,265.9718,94.1146,0.00041594,4.87e-05,0.0,0 STARLINK-5284,1 55297U 23010AE  24195.93157260  .00004870  00000-0  41594-3 0  9993,2 55297  70.0006 106.6812 0002583 265.9718  94.1146 14.98302310 82830,6950.279,96.109,573.939,570.348,0.0
55297.0,STARLINK-5284,PAYLOAD,2024-07-14 11:10:32,14.98329287,0.0002666,70.0006,105.3345,268.1747,91.9107,-3.693e-05,-5.34e-06,0.0,0 STARLINK-5284,1 55297U 23010AE  24196.46564890 -.00000534  00000-0 -36930-4 0  9997,2 55297  70.0006 105.3345 0002666 268.1747  91.9107 14.98329287 82919,6950.195,96.107,573.913,570.207,0.0
55297.0,STARLINK-5284,PAYLOAD,2024-07-14 20:47:20,14.98328999,0.0002731,70.0003,104.3248,266.9299,93.1547,3.503e-05,3.25e-06,0.0,0 STARLINK-5284,1 55297U 23010AE  24196.86620676  .00000325  00000-0  35030-4 0  9992,2 55297  70.0003 104.3248 0002731 266.9299  93.1547 14.98328999 82661,6950.196,96.107,573.959,570.163,0.0
55297.0,STARLINK-5284,PAYLOAD,2024-07-14 22:23:28,14.9832317,0.0002749,70.0004,104.1564,267.386,92.6984,0.0001085,1.202e-05,0.0,0 STARLINK-5284,1 55297U 23010AE  24196.93296817  .00001202  00000-0  10850-3 0  9993,2 55297  70.0004 104.1564 0002749 267.3860  92.6984 14.98323170 82989,6950.214,96.107,573.99,570.168,0.0
55297.0,STARLINK-5284,PAYLOAD,2024-07-15 11:12:32,14.98331699,0.0003057,70.0,102.8099,271.2776,88.8033,5.0412e-06,-3.3e-07,0.0,0 STARLINK-5284,1 55297U 23010AE  24197.46704433 -.00000033  00000-0  50412-5 0  9992,2 55297  70.0000 102.8099 0003057 271.2776  88.8033 14.98331699 83063,6950.188,96.107,574.177,569.928,0.0
55297.0,STARLINK-5284,PAYLOAD,2024-07-15 20:49:21,14.98321118,0.0002999,69.9999,101.8001,270.9493,89.1322,-4.2433e-05,-5.99e-06,0.0,0 STARLINK-5284,1 55297U 23010AE  24197.86761354 -.00000599  00000-0 -42433-4 0  9992,2 55297  69.9999 101.8001 0002999 270.9493  89.1322 14.98321118 82817,6950.22,96.108,574.17,570.001,0.0
55297.0,STARLINK-5284,PAYLOAD,2024-07-15 22:25:29,14.98324708,0.0002818,70.0003,101.6313,267.1883,92.8954,-6.6429e-06,-1.72e-06,0.0,0 STARLINK-5284,1 55297U 23010AE  24197.93437029 -.00000172  00000-0 -66429-5 0  9998,2 55297  70.0003 101.6313 0002818 267.1883  92.8954 14.98324708 83137,6950.209,96.107,574.033,570.116,0.0
55297.0,STARLINK-5284,PAYLOAD,2024-07-16 03:13:53,14.98329652,0.0002771,70.0004,101.126,266.8968,93.1874,2.5232e-05,2.08e-06,0.0,0 STARLINK-5284,1 55297U 23010AE  24198.13464648  .00000208  00000-0  25232-4 0  9992,2 55297  70.0004 101.1260 0002771 266.8968  93.1874 14.98329652 82858,6950.194,96.107,573.985,570.133,0.0
